ORBCOMM FM37            
1 33064U 08031E   25096.98237918  .00003670  00000+0  51431-3 0  9999
2 33064  48.4401 322.0744 0005161  68.5534  68.8120 14.79427165903503
ORBCOMM FM40            
1 33065U 08031F   25096.93329199  .00004925  00000+0  64686-3 0  9998
2 33065  48.4413 307.5123 0006286  82.2769  54.2222 14.81573495903590
VESSELSAT 1             
1 37840U 11058C   25096.83261306  .00000466  00000+0  10954-3 0  9995
2 37840  19.9606 165.6485 0013750 121.2053 238.9700 14.11334491696214
ORBCOMM FM109           
1 40086U 14040A   25096.85391132  .00002030  00000+0  47381-3 0  9991
2 40086  47.0045 353.1564 0001832 356.9947   3.0927 14.58023675570659
ORBCOMM FM107           
1 40087U 14040B   25096.88567715  .00001797  00000+0  42305-3 0  9997
2 40087  47.0061 353.9955 0001702 306.3350  53.7378 14.58084089570730
ORBCOMM FM106           
1 40088U 14040C   25096.63062443  .00002541  00000+0  45770-3 0  9996
2 40088  47.0586 183.0183 0015932  95.0998 265.1711 14.69217995572950
ORBCOMM FM111           
1 40089U 14040D   25096.88743995  .00005416  00000+0  63474-3 0  9997
2 40089  47.0022  41.5122 0030453 212.1764 147.7274 14.85799847579624
ORBCOMM FM104           
1 40090U 14040E   25096.86472048  .00001583  00000+0  38958-3 0  9995
2 40090  47.0067  26.8474 0016826 241.0983 118.8214 14.56506102570221
